{
  "norad_id": 48618,
  "name": "SBIRS GEO-5 (USA 315)",
  "history": [
    {
      "epoch": "2026-03-28T16:56:30.399360Z",
      "apogee_km": 35792.662422827256,
      "perigee_km": 35780.561139927,
      "latitude_deg": -2.243933428351436,
      "longitude_deg": 93.71489602952556,
      "height_km": 35792.51263339675,
      "semi_major_axis_km": 42164.74878137713,
      "eccentricity": 0.0001435,
      "inclination_deg": 5.2068,
      "raan_deg": 328.5192,
      "arg_perigee_deg": 26.6263,
      "mean_anomaly_deg": 178.8722,
      "mean_motion_rev_day": 1.00271725
    },
    {
      "epoch": "2026-03-29T01:29:56.374656Z",
      "apogee_km": 35792.66517248654,
      "perigee_km": 35780.60604752008,
      "latitude_deg": -2.247998124408382,
      "longitude_deg": 93.88130057913291,
      "height_km": 35782.86841733521,
      "semi_major_axis_km": 42164.77261000331,
      "eccentricity": 0.000143,
      "inclination_deg": 5.2063,
      "raan_deg": 328.5219,
      "arg_perigee_deg": 27.8472,
      "mean_anomaly_deg": 306.3579,
      "mean_motion_rev_day": 1.0027164
    },
    {
      "epoch": "2026-03-30T02:47:51.773280Z",
      "apogee_km": 35792.768626840814,
      "perigee_km": 35780.60407530403,
      "latitude_deg": -0.4647823519182933,
      "longitude_deg": 93.81236645163618,
      "height_km": 35781.27603568116,
      "semi_major_axis_km": 42164.823351072424,
      "eccentricity": 0.00014425,
      "inclination_deg": 5.2049,
      "raan_deg": 328.5304,
      "arg_perigee_deg": 30.3106,
      "mean_anomaly_deg": 324.4045,
      "mean_motion_rev_day": 1.00271459
    },
    {
      "epoch": "2026-03-30T16:51:33.604992Z",
      "apogee_km": 35792.78907639129,
      "perigee_km": 35780.52924026029,
      "latitude_deg": -2.3039086227151775,
      "longitude_deg": 93.71286211955211,
      "height_km": 35792.61006347446,
      "semi_major_axis_km": 42164.79615832579,
      "eccentricity": 0.00014538,
      "inclination_deg": 5.204,
      "raan_deg": 328.5344,
      "arg_perigee_deg": 33.1145,
      "mean_anomaly_deg": 173.0989,
      "mean_motion_rev_day": 1.00271556
    },
    {
      "epoch": "2026-03-31T03:07:42.029184Z",
      "apogee_km": 35792.77048496771,
      "perigee_km": 35780.57810813321,
      "latitude_deg": 0.07517517863302701,
      "longitude_deg": 93.78703796514928,
      "height_km": 35781.040191675886,
      "semi_major_axis_km": 42164.81129655046,
      "eccentricity": 0.00014458,
      "inclination_deg": 5.2035,
      "raan_deg": 328.5374,
      "arg_perigee_deg": 33.9701,
      "mean_anomaly_deg": 326.6968,
      "mean_motion_rev_day": 1.00271502
    },
    {
      "epoch": "2026-04-01T19:27:38.835360Z",
      "apogee_km": 35792.66572345961,
      "perigee_km": 35780.3958051402,
      "latitude_deg": -4.793361207771135,
      "longitude_deg": 93.70881389200761,
      "height_km": 35792.398545956916,
      "semi_major_axis_km": 42164.66776429991,
      "eccentricity": 0.0001455,
      "inclination_deg": 5.2011,
      "raan_deg": 328.5499,
      "arg_perigee_deg": 42.5337,
      "mean_anomaly_deg": 204.7657,
      "mean_motion_rev_day": 1.00272014
    }
  ]
}